
# C41 (GNSS)
1 44864U 19090A   25204.04210355 -.00000044  00000+0  00000+0 0  9995
2 44864  56.2652  73.6934 0016424 291.8299 247.1155  1.86231494 38108

# C42 (GNSS)
1 44865U 19090B   25204.48405356 -.00000042  00000+0  00000+0 0  9999
2 44865  56.2672  73.7128 0014276 306.9605 257.9247  1.86231409 38094

# C60 (GNSS)
1 45344U 20017A   25204.42655179 -.00000152  00000+0  00000+0 0  9999
2 45344   2.9347  41.1864 0001458  88.4490  45.3499  1.00271397 19961

# C61 (GNSS)
1 45807U 20040A   25204.55121056 -.00000365  00000+0  00000+0 0  9991
2 45807   1.6456  64.8219 0004524 340.0071 205.6002  1.00276696 18773

# C62 (GNSS)
1 56564U 23066A   25204.55322628 -.00000121  00000+0  00000+0 0  9992
2 56564   1.1390 293.7495 0006550 196.4380 170.4275  1.00269815  8105

# C50 (GNSS)
1 58654U 23207A   25200.92287102 -.00000056  00000+0  00000+0 0  9992
2 58654  55.4514  73.5375 0002059 353.0951   6.9633  1.86229841 10656

# E24 (GNSS)
1 40889U 15045A   25203.57588448  .00000068  00000+0  00000+0 0  9997
2 40889  55.0556 230.7086 0002944  13.1924 346.8885  1.70473589 61397

# E30 (GNSS)
1 40890U 15045B   25202.03679910  .00000076  00000+0  00000+0 0  9993
2 40890  55.0546 230.7466 0001477 325.9563  34.1091  1.70473464 61391

# E07 (GNSS)
1 41859U 16069A   25203.08542922 -.00000040  00000+0  00000+0 0  9996
2 41859  55.2928 110.2304 0004752 324.2656  35.7132  1.70473634 53775

# E08 (GNSS)
1 41175U 15079B   25202.42548066 -.00000038  00000+0  00000+0 0  9996
2 41175  55.6247 110.3418 0004400 335.4399  24.5481  1.70473649 59550

# E09 (GNSS)
1 41174U 15079A   25201.61888427 -.00000035  00000+0  00000+0 0  9990
2 41174  55.6252 110.3666 0004504 341.2114  18.7806  1.70473671 59703

# E01 (GNSS)
1 41550U 16030B   25201.63368523  .00000077  00000+0  00000+0 0  9993
2 41550  55.2036 230.8102 0004509 238.4100 121.6205  1.70473818 57019

# E02 (GNSS)
1 41549U 16030A   25200.78933288  .00000077  00000+0  00000+0 0  9992
2 41549  55.2044 230.8354 0002782 317.3333  42.7178  1.70473521 57003

# E03 (GNSS)
1 41860U 16069B   25202.93928246 -.00000040  00000+0  00000+0 0  9998
2 41860  55.2911 110.2301 0003913   5.2220 354.7922  1.70473802 54024

# E04 (GNSS)
1 41861U 16069C   25203.89370837 -.00000039  00000+0  00000+0 0  9990
2 41861  55.2943 110.2110 0004198 305.5358  54.4394  1.70474241 54038

# E05 (GNSS)
1 41862U 16069D   25201.69312984 -.00000036  00000+0  00000+0 0  9993
2 41862  55.2916 110.2650 0003171 314.7668  45.2160  1.70473740 53990

# E21 (GNSS)
1 43055U 17079A   25202.76964746  .00000073  00000+0  00000+0 0  9999
2 43055  55.1805 230.5971 0003513 259.7668 100.2682  1.70474357 47351

# E25 (GNSS)
1 43056U 17079B   25197.19521055  .00000070  00000+0  00000+0 0  9999
2 43056  55.1835 230.7506 0004660 270.4738  89.5407  1.70474472 47276

# E27 (GNSS)
1 43057U 17079C   25203.86825351  .00000066  00000+0  00000+0 0  9993
2 43057  55.1797 230.5647 0004933 285.4470  74.5706  1.70474220 47378

# E31 (GNSS)
1 43058U 17079D   25203.50174589  .00000069  00000+0  00000+0 0  9998
2 43058  55.1798 230.5724 0005258 268.5045  91.5086  1.70474396 47393

# E36 (GNSS)
1 43566U 18060C   25203.25813587 -.00000101  00000+0  00000+0 0  9991
2 43566  57.2661 350.6941 0001772 285.8886  74.0821  1.70475947 43567

# E13 (GNSS)
1 43567U 18060D   25201.13265740 -.00000091  00000+0  00000+0 0  9997
2 43567  57.2663 350.7515 0002079 279.8821  80.0912  1.70475635 43518

# E15 (GNSS)
1 43564U 18060A   25203.40427665 -.00000102  00000+0  00000+0 0  9995
2 43564  57.2634 350.6857 0002659 275.9850  83.9745  1.70475989 43545

# E33 (GNSS)
1 43565U 18060B   25204.20998836 -.00000104  00000+0  00000+0 0  9990
2 43565  57.2666 350.6669 0002944 227.9886 131.9743  1.70475785 43608

# E34 (GNSS)
1 49809U 21116A   25203.32703612 -.00000101  00000+0  00000+0 0  9998
2 49809  57.2553 350.5839 0002584 190.0497 167.3197  1.70475894 22554

# E10 (GNSS)
1 49810U 21116B   25204.02663743 -.00000104  00000+0  00000+0 0  9991
2 49810  57.2561 350.5636 0002092 178.3898   0.9046  1.70476061 22594

# R01 (GNSS)
1 36111U 09070A   25200.38013384 -.00000032  00000+0  00000+0 0  9991
2 36111  64.8136  82.3421 0003499 336.8615 199.7687  2.13103643121339

# R02 (GNSS)
1 39155U 13019A   25201.14485159 -.00000033  00000+0  00000+0 0  9999
2 39155  65.2328  84.7632 0022304 231.4570 128.4020  2.13104555 95203

# R03 (GNSS)
1 37867U 11064A   25203.75394284 -.00000020  00000+0  00000+0 0  9998
2 37867  65.0804  84.0089 0021837 235.5155 278.9473  2.13101483106743

# R04 (GNSS)
1 44850U 19088A   25203.60791155 -.00000021  00000+0  00000+0 0  9995
2 44850  65.3796  84.7450 0012063 255.0509 104.8833  2.13101950 43696

# R05 (GNSS)
1 43508U 18053A   25203.19422956 -.00000024  00000+0  00000+0 0  9992
2 43508  65.3921  84.9295 0006797 228.5969 131.4104  2.13102158 55248

# R06 (GNSS)
1 36112U 09070B   25201.67544153 -.00000032  00000+0  00000+0 0  9998
2 36112  64.7995  82.1483 0004171 131.9682  88.8723  2.13101153121360

# R07 (GNSS)
1 37868U 11064B   25202.64973839 -.00000027  00000+0  00000+0 0  9992
2 37868  65.0864  84.1226 0018967 236.6200 330.9158  2.13102999106716

# R08 (GNSS)
1 37869U 11064C   25204.55921645 -.00000015  00000+0  00000+0 0  9990
2 37869  65.0944  84.0765 0024047 251.5862 297.4322  2.13101850106769

# R09 (GNSS)
1 40315U 14075A   25201.06503697  .00000113  00000+0  00000+0 0  9999
2 40315  63.6176 201.8687 0021874 212.0361 147.8607  2.13101331 82775

# R10 (GNSS)
1 32395U 07065C   25203.12190446  .00000089  00000+0  00000+0 0  9994
2 32395  64.3268 203.1172 0016741 352.7635 104.8397  2.13100097136699

# R11 (GNSS)
1 46805U 20075A   25203.05217963  .00000091  00000+0  00000+0 0  9990
2 46805  64.5988 203.4927 0009187 240.9653 118.9697  2.13100080 36876

# R12 (GNSS)
1 44299U 19030A   25203.17491104  .00000089  00000+0  00000+0 0  9995
2 44299  64.3687 203.7280 0013567 276.8338 127.6385  2.13102113 47899

# R13 (GNSS)
1 32393U 07065A   25203.40005395  .00000085  00000+0  00000+0 0  9997
2 32393  64.3181 203.0391 0000793 319.7514 217.5214  2.13101286136749

# R14 (GNSS)
1 42939U 17055A   25203.23383582  .00000087  00000+0  00000+0 0  9994
2 42939  64.0795 203.1145 0010662 241.2610 118.6570  2.13101864 60940

# R15 (GNSS)
1 43687U 18086A   25204.23046944  .00000071  00000+0  00000+0 0  9992
2 43687  64.2953 203.7013 0011958 257.9583 101.9283  2.13101980 52273

# R16 (GNSS)
1 54377U 22161A   25203.35143789  .00000087  00000+0  00000+0 0  9993
2 54377  64.7406 203.6595 0011938 225.3721 134.5565  2.13101996 20608

# R17 (GNSS)
1 41330U 16008A   25204.33364485 -.00000082  00000+0  00000+0 0  9994
2 41330  65.2128 324.2784 0011893 202.6436 157.3083  2.13102521 73613

# R18 (GNSS)
1 39620U 14012A   25202.97945837 -.00000083  00000+0  00000+0 0  9991
2 39620  65.4861 325.1431 0010635 317.8935  42.0266  2.13103138 88202

# R19 (GNSS)
1 54031U 22130A   25202.09898333 -.00000082  00000+0  00000+0 0  9994
2 54031  64.4611 326.2277 0012701 180.6821 179.3189  2.13101521 21628

# R20 (GNSS)
1 32276U 07052B   25204.61966590 -.00000084  00000+0  00000+0 0  9990
2 32276  65.7732 327.0969 0007712 321.7367 124.8998  2.13103093138098

# R21 (GNSS)
1 40001U 14032A   25204.56129943 -.00000082  00000+0  00000+0 0  9996
2 40001  65.4213 324.8631 0008084 192.6656 167.3181  2.13105860 86456

# R22 (GNSS)
1 52984U 22075A   25202.28016594 -.00000083  00000+0  00000+0 0  9990
2 52984  64.4885 326.1270 0011180 273.2635  86.6109  2.13102103 23665

# R23 (GNSS)
1 36402U 10007C   25202.84966546 -.00000083  00000+0  00000+0 0  9992
2 36402  65.6074 325.6289 0001577 150.2521 248.7201  2.13106175119782

# R24 (GNSS)
1 45358U 20018A   25203.33487749 -.00000083  00000+0  00000+0 0  9993
2 45358  64.5505 323.9961 0009599 232.6715 127.2447  2.13102424 41633

# R25 (GNSS)
1 32275U 07052A   25199.27314216 -.00000064  00000+0  00000+0 0  9994
2 32275  65.7605 327.1544 0003334 207.5554 152.4351  2.13104037137943
